{
  "type": "FeatureCollection",
  "features": [
    {
      "type": "Feature",
      "properties": {
        "norad_id": 55268,
        "name": "GPS BIII-6  (PRN 28)",
        "group": "gnss",
        "lat": -12.981696765994881,
        "lon": -15.097802346420057,
        "alt_km": 20194.054998317173,
        "timestamp": "2025-12-17T17:50:19.494596+00:00",
        "meta_object_name": "GPS BIII-6  (PRN 28)",
        "meta_object_id": "2023-009A",
        "meta_epoch": "2025-12-17T05:26:38.724576",
        "meta_mean_motion": 2.00555443,
        "meta_eccentricity": 0.00036765,
        "meta_inclination": 55.1057,
        "meta_ra_of_asc_node": 155.6691,
        "meta_arg_of_pericenter": 356.3023,
        "meta_mean_anomaly": 186.6763,
        "meta_ephemeris_type": 0,
        "meta_classification_type": "U",
        "meta_norad_cat_id": 55268,
        "meta_element_set_no": 999,
        "meta_rev_at_epoch": 2159,
        "meta_bstar": 0,
        "meta_mean_motion_dot": 7.9e-07,
        "meta_mean_motion_ddot": 0,
        "tle_line1": "1 55268U 23009A   25351.22683709  .00000079  00000+0  00000+0 0  9997",
        "tle_line2": "2 55268  55.1057 155.6691 0003676 356.3023 186.6763  2.00555443 21590"
      },
      "geometry": {
        "type": "Point",
        "coordinates": [
          -15.097802346420057,
          -12.981696765994881
        ]
      }
    },
    {
      "type": "Feature",
      "properties": {
        "norad_id": 56564,
        "name": "BEIDOU-3 G4 (C62)",
        "group": "gnss",
        "lat": -0.42132177442451957,
        "lon": 154.23393171178068,
        "alt_km": 35774.98006456736,
        "timestamp": "2025-12-17T17:50:19.494607+00:00",
        "meta_object_name": "BEIDOU-3 G4 (C62)",
        "meta_object_id": "2023-066A",
        "meta_epoch": "2025-12-17T06:44:38.482944",
        "meta_mean_motion": 1.00271742,
        "meta_eccentricity": 0.00027703,
        "meta_inclination": 0.8052,
        "meta_ra_of_asc_node": 302.4125,
        "meta_arg_of_pericenter": 227.6484,
        "meta_mean_anomaly": 177.3219,
        "meta_ephemeris_type": 0,
        "meta_classification_type": "U",
        "meta_norad_cat_id": 56564,
        "meta_element_set_no": 999,
        "meta_rev_at_epoch": 957,
        "meta_bstar": 0,
        "meta_mean_motion_dot": -8.5e-07,
        "meta_mean_motion_ddot": 0,
        "tle_line1": "1 56564U 23066A   25351.28100096 -.00000085  00000+0  00000+0 0  9997",
        "tle_line2": "2 56564   0.8052 302.4125 0002770 227.6484 177.3219  1.00271742  9574"
      },
      "geometry": {
        "type": "Point",
        "coordinates": [
          154.23393171178068,
          -0.42132177442451957
        ]
      }
    },
    {
      "type": "Feature",
      "properties": {
        "norad_id": 56759,
        "name": "NVS-01 (IRNSS-1J)",
        "group": "gnss",
        "lat": -2.044346016309755,
        "lon": 123.61470677476501,
        "alt_km": 35815.26627584263,
        "timestamp": "2025-12-17T17:50:19.494621+00:00",
        "meta_object_name": "NVS-01 (IRNSS-1J)",
        "meta_object_id": "2023-076A",
        "meta_epoch": "2025-12-17T05:22:53.239584",
        "meta_mean_motion": 1.0027547,
        "meta_eccentricity": 0.00087977,
        "meta_inclination": 2.6075,
        "meta_ra_of_asc_node": 251.4372,
        "meta_arg_of_pericenter": 15.5449,
        "meta_mean_anomaly": 29.3604,
        "meta_ephemeris_type": 0,
        "meta_classification_type": "U",
        "meta_norad_cat_id": 56759,
        "meta_element_set_no": 999,
        "meta_rev_at_epoch": 929,
        "meta_bstar": 0,
        "meta_mean_motion_dot": -3.07e-06,
        "meta_mean_motion_ddot": 0,
        "tle_line1": "1 56759U 23076A   25351.22422731 -.00000307  00000+0  00000+0 0  9998",
        "tle_line2": "2 56759   2.6075 251.4372 0008797  15.5449  29.3604  1.00275470  9297"
      },
      "geometry": {
        "type": "Point",
        "coordinates": [
          123.61470677476501,
          -2.044346016309755
        ]
      }
    },
    {
      "type": "Feature",
      "properties": {
        "norad_id": 57517,
        "name": "COSMOS 2569 (703K)",
        "group": "gnss",
        "lat": 59.022793388104326,
        "lon": 129.0147384626198,
        "alt_km": 19145.221666424655,
        "timestamp": "2025-12-17T17:50:19.494634+00:00",
        "meta_object_name": "COSMOS 2569 (703K)",
        "meta_object_id": "2023-114A",
        "meta_epoch": "2025-12-17T04:21:40.359168",
        "meta_mean_motion": 2.13104058,
        "meta_eccentricity": 0.00106912,
        "meta_inclination": 65.1965,
        "meta_ra_of_asc_node": 78.7634,
        "meta_arg_of_pericenter": 286.983,
        "meta_mean_anomaly": 72.918,
        "meta_ephemeris_type": 0,
        "meta_classification_type": "U",
        "meta_norad_cat_id": 57517,
        "meta_element_set_no": 999,
        "meta_rev_at_epoch": 1838,
        "meta_bstar": 0,
        "meta_mean_motion_dot": -5e-07,
        "meta_mean_motion_ddot": 0,
        "tle_line1": "1 57517U 23114A   25351.18171712 -.00000050  00000+0  00000+0 0  9994",
        "tle_line2": "2 57517  65.1965  78.7634 0010691 286.9830  72.9180  2.13104058 18388"
      },
      "geometry": {
        "type": "Point",
        "coordinates": [
          129.0147384626198,
          59.022793388104326
        ]
      }
    },
    {
      "type": "Feature",
      "properties": {
        "norad_id": 58654,
        "name": "BEIDOU-3 M28 (C50)",
        "group": "gnss",
        "lat": -34.35001765338263,
        "lon": 40.55646847872891,
        "alt_km": 21527.544333184298,
        "timestamp": "2025-12-17T17:50:19.494645+00:00",
        "meta_object_name": "BEIDOU-3 M28 (C50)",
        "meta_object_id": "2023-207A",
        "meta_epoch": "2025-12-15T15:50:05.112096",
        "meta_mean_motion": 1.8622982,
        "meta_eccentricity": 0.00025263,
        "meta_inclination": 55.587,
        "meta_ra_of_asc_node": 68.5025,
        "meta_arg_of_pericenter": 270.8998,
        "meta_mean_anomaly": 89.0909,
        "meta_ephemeris_type": 0,
        "meta_classification_type": "U",
        "meta_norad_cat_id": 58654,
        "meta_element_set_no": 999,
        "meta_rev_at_epoch": 1342,
        "meta_bstar": 0,
        "meta_mean_motion_dot": -8.4e-07,
        "meta_mean_motion_ddot": 0,
        "tle_line1": "1 58654U 23207A   25349.65978139 -.00000084  00000+0  00000+0 0  9994",
        "tle_line2": "2 58654  55.5870  68.5025 0002526 270.8998  89.0909  1.86229820 13427"
      },
      "geometry": {
        "type": "Point",
        "coordinates": [
          40.55646847872891,
          -34.35001765338263
        ]
      }
    },
    {
      "type": "Feature",
      "properties": {
        "norad_id": 58655,
        "name": "BEIDOU-3 M26 (C48)",
        "group": "gnss",
        "lat": 55.53269371820879,
        "lon": 162.9088412075936,
        "alt_km": 21532.220255507975,
        "timestamp": "2025-12-17T17:50:19.494657+00:00",
        "meta_object_name": "BEIDOU-3 M26 (C48)",
        "meta_object_id": "2023-207B",
        "meta_epoch": "2025-12-15T23:51:52.176960",
        "meta_mean_motion": 1.86231301,
        "meta_eccentricity": 0.00039507,
        "meta_inclination": 55.5893,
        "meta_ra_of_asc_node": 68.4775,
        "meta_arg_of_pericenter": 256.9,
        "meta_mean_anomaly": 103.0764,
        "meta_ephemeris_type": 0,
        "meta_classification_type": "U",
        "meta_norad_cat_id": 58655,
        "meta_element_set_no": 999,
        "meta_rev_at_epoch": 1341,
        "meta_bstar": 0,
        "meta_mean_motion_dot": -8.2e-07,
        "meta_mean_motion_ddot": 0,
        "tle_line1": "1 58655U 23207B   25349.99435390 -.00000082  00000+0  00000+0 0  9997",
        "tle_line2": "2 58655  55.5893  68.4775 0003950 256.9000 103.0764  1.86231301 13417"
      },
      "geometry": {
        "type": "Point",
        "coordinates": [
          162.9088412075936,
          55.53269371820879
        ]
      }
    },
    {
      "type": "Feature",
      "properties": {
        "norad_id": 59598,
        "name": "GSAT0225 (GALILEO 29)",
        "group": "gnss",
        "lat": 50.79448188784037,
        "lon": -132.93053576861203,
        "alt_km": 23214.234209395716,
        "timestamp": "2025-12-17T17:50:19.494668+00:00",
        "meta_object_name": "GSAT0225 (GALILEO 29)",
        "meta_object_id": "2024-079A",
        "meta_epoch": "2025-12-16T09:22:38.225280",
        "meta_mean_motion": 1.70475011,
        "meta_eccentricity": 0.00021396,
        "meta_inclination": 55.0038,
        "meta_ra_of_asc_node": 106.1932,
        "meta_arg_of_pericenter": 182.0305,
        "meta_mean_anomaly": 176.7742,
        "meta_ephemeris_type": 0,
        "meta_classification_type": "U",
        "meta_norad_cat_id": 59598,
        "meta_element_set_no": 999,
        "meta_rev_at_epoch": 1019,
        "meta_bstar": 0,
        "meta_mean_motion_dot": -1e-07,
        "meta_mean_motion_ddot": 0,
        "tle_line1": "1 59598U 24079A   25350.39072020 -.00000010  00000+0  00000+0 0  9996",
        "tle_line2": "2 59598  55.0038 106.1932 0002139 182.0305 176.7742  1.70475011 10196"
      },
      "geometry": {
        "type": "Point",
        "coordinates": [
          -132.93053576861203,
          50.79448188784037
        ]
      }
    }
  ]
}